[Satellite]
VERSION=1.1
NAME=ECHOSTAR 6
NICKNAME=ECHOSTAR 6
TLE1=1 26402U 00038A   15052.39072128 -.00000169  00000-0  00000+0 0  9996
TLE2=2 26402   2.5510  71.9845 0002026 267.1332 216.2803  1.00272927 53489
